[{"OBJECT_NAME":"IRIDIUM 33 DEB","OBJECT_ID":"1997-051AAK","EPOCH":"2026-03-29T04:24:55.991232","MEAN_MOTION":14.55265904,"ECCENTRICITY":0.000919,"INCLINATION":86.3826,"RA_OF_ASC_NODE":356.9914,"ARG_OF_PERICENTER":38.6134,"MEAN_ANOMALY":321.5729,"EPHEMERIS_TYPE":0,"CLASSIFICATION_TYPE":"U","NORAD_CAT_ID":39778,"ELEMENT_SET_NO":999,"REV_AT_EPOCH":62240,"BSTAR":0.0011207,"MEAN_MOTION_DOT":4.875e-5,"MEAN_MOTION_DDOT":0},{"OBJECT_NAME":"IRIDIUM 33 DEB","OBJECT_ID":"1997-051AAN","EPOCH":"2026-03-25T15:06:59.916960","MEAN_MOTION":14.23293704,"ECCENTRICITY":0.0167081,"INCLINATION":86.3742,"RA_OF_ASC_NODE":215.5276,"ARG_OF_PERICENTER":301.432,"MEAN_ANOMALY":68.8545,"EPHEMERIS_TYPE":0,"CLASSIFICATION_TYPE":"U","NORAD_CAT_ID":39781,"ELEMENT_SET_NO":999,"REV_AT_EPOCH":9569,"BSTAR":0.0041065,"MEAN_MOTION_DOT":0.0001076,"MEAN_MOTION_DDOT":0},{"OBJECT_NAME":"IRIDIUM 33 DEB","OBJECT_ID":"1997-051ABJ","EPOCH":"2026-03-18T10:20:21.128640","MEAN_MOTION":15.05331375,"ECCENTRICITY":0.00097544,"INCLINATION":86.3493,"RA_OF_ASC_NODE":316.3879,"ARG_OF_PERICENTER":60.9534,"MEAN_ANOMALY":60.8654,"EPHEMERIS_TYPE":0,"CLASSIFICATION_TYPE":"U","NORAD_CAT_ID":40996,"ELEMENT_SET_NO":999,"REV_AT_EPOCH":63923,"BSTAR":0.0018484599,"MEAN_MOTION_DOT":0.00026572,"MEAN_MOTION_DDOT":0},{"OBJECT_NAME":"IRIDIUM 33 DEB","OBJECT_ID":"1997-051ABL","EPOCH":"2026-03-20T13:18:48.252960","MEAN_MOTION":14.45504117,"ECCENTRICITY":0.00095854,"INCLINATION":86.388,"RA_OF_ASC_NODE":11.8556,"ARG_OF_PERICENTER":105.6376,"MEAN_ANOMALY":20.7682,"EPHEMERIS_TYPE":0,"CLASSIFICATION_TYPE":"U","NORAD_CAT_ID":40998,"ELEMENT_SET_NO":999,"REV_AT_EPOCH":8094,"BSTAR":0.0004685059,"MEAN_MOTION_DOT":1.671e-5,"MEAN_MOTION_DDOT":0},{"OBJECT_NAME":"IRIDIUM 33 DEB","OBJECT_ID":"1997-051ABN","EPOCH":"2026-03-28T21:54:50.138784","MEAN_MOTION":14.37881805,"ECCENTRICITY":0.019044,"INCLINATION":86.2817,"RA_OF_ASC_NODE":148.021,"ARG_OF_PERICENTER":285.3968,"MEAN_ANOMALY":254.7808,"EPHEMERIS_TYPE":0,"CLASSIFICATION_TYPE":"U","NORAD_CAT_ID":46435,"ELEMENT_SET_NO":999,"REV_AT_EPOCH":9439,"BSTAR":0.0041655,"MEAN_MOTION_DOT":0.00015545,"MEAN_MOTION_DDOT":0},{"OBJECT_NAME":"IRIDIUM 33 DEB","OBJECT_ID":"1997-051ABR","EPOCH":"2026-03-25T09:43:38.646624","MEAN_MOTION":14.42665972,"ECCENTRICITY":0.00403907,"INCLINATION":86.2626,"RA_OF_ASC_NODE":317.7811,"ARG_OF_PERICENTER":356.4504,"MEAN_ANOMALY":184.0485,"EPHEMERIS_TYPE":0,"CLASSIFICATION_TYPE":"U","NORAD_CAT_ID":46734,"ELEMENT_SET_NO":999,"REV_AT_EPOCH":64490,"BSTAR":0.00073413942,"MEAN_MOTION_DOT":2.483e-5,"MEAN_MOTION_DDOT":0},{"OBJECT_NAME":"IRIDIUM 33 DEB","OBJECT_ID":"1997-051ABX","EPOCH":"2026-03-28T20:17:13.902720","MEAN_MOTION":14.61165916,"ECCENTRICITY":0.00181331,"INCLINATION":86.3296,"RA_OF_ASC_NODE":293.6138,"ARG_OF_PERICENTER":331.1555,"MEAN_ANOMALY":43.7359,"EPHEMERIS_TYPE":0,"CLASSIFICATION_TYPE":"U","NORAD_CAT_ID":46965,"ELEMENT_SET_NO":999,"REV_AT_EPOCH":63817,"BSTAR":0.00059914147,"MEAN_MOTION_DOT":2.976e-5,"MEAN_MOTION_DDOT":0},{"OBJECT_NAME":"IRIDIUM 33 DEB","OBJECT_ID":"1997-051ACD","EPOCH":"2026-03-12T21:41:42.254592","MEAN_MOTION":15.04692078,"ECCENTRICITY":0.00074801,"INCLINATION":86.3309,"RA_OF_ASC_NODE":290.451,"ARG_OF_PERICENTER":347.9303,"MEAN_ANOMALY":75.089,"EPHEMERIS_TYPE":0,"CLASSIFICATION_TYPE":"U","NORAD_CAT_ID":46971,"ELEMENT_SET_NO":999,"REV_AT_EPOCH":65583,"BSTAR":0.0019647711,"MEAN_MOTION_DOT":0.00027757,"MEAN_MOTION_DDOT":0},{"OBJECT_NAME":"IRIDIUM 33 DEB","OBJECT_ID":"1997-051ACE","EPOCH":"2026-03-21T00:51:06.959808","MEAN_MOTION":14.51201793,"ECCENTRICITY":0.00106128,"INCLINATION":86.3927,"RA_OF_ASC_NODE":357.0817,"ARG_OF_PERICENTER":126.491,"MEAN_ANOMALY":247.8233,"EPHEMERIS_TYPE":0,"CLASSIFICATION_TYPE":"U","NORAD_CAT_ID":46972,"ELEMENT_SET_NO":999,"REV_AT_EPOCH":62998,"BSTAR":0.00045931459,"MEAN_MOTION_DOT":1.845e-5,"MEAN_MOTION_DDOT":0},{"OBJECT_NAME":"IRIDIUM 33 DEB","OBJECT_ID":"1997-051ACG","EPOCH":"2026-03-26T04:40:28.871904","MEAN_MOTION":14.46873355,"ECCENTRICITY":0.00869525,"INCLINATION":86.2979,"RA_OF_ASC_NODE":59.9948,"ARG_OF_PERICENTER":201.3478,"MEAN_ANOMALY":158.409,"EPHEMERIS_TYPE":0,"CLASSIFICATION_TYPE":"U","NORAD_CAT_ID":46974,"ELEMENT_SET_NO":999,"REV_AT_EPOCH":59003,"BSTAR":0.0020431531,"MEAN_MOTION_DOT":7.79e-5,"MEAN_MOTION_DDOT":0}]
